{
    "links": {
        "self": "http://www.neowsapp.com/rest/v1/neo/3697801?api_key=iIulBulltgU6a56xZRHN4H3l9WmuAYTsLGpBGhQ2"
    },
    "id": "3697801",
    "neo_reference_id": "3697801",
    "name": "(2014 WF200)",
    "designation": "2014 WF200",
    "nasa_jpl_url": "http://ssd.jpl.nasa.gov/sbdb.cgi?sstr=3697801",
    "absolute_magnitude_h": 27.4,
    "estimated_diameter": {
        "kilometers": {
            "estimated_diameter_min": 0.0088014652,
            "estimated_diameter_max": 0.0196806745
        },
        "meters": {
            "estimated_diameter_min": 8.801465209,
            "estimated_diameter_max": 19.6806745089
        },
        "miles": {
            "estimated_diameter_min": 0.0054689752,
            "estimated_diameter_max": 0.0122290004
        },
        "feet": {
            "estimated_diameter_min": 28.8761991163,
            "estimated_diameter_max": 64.5691441559
        }
    },
    "is_potentially_hazardous_asteroid": false,
    "close_approach_data": [
        {
            "close_approach_date": "2014-05-20",
            "close_approach_date_full": "2014-May-20 21:02",
            "epoch_date_close_approach": 1400619720000,
            "relative_velocity": {
                "kilometers_per_second": "7.0597466423",
                "kilometers_per_hour": "25415.087912361",
                "miles_per_hour": "15791.9472642112"
            },
            "miss_distance": {
                "astronomical": "0.4336592429",
                "lunar": "168.6934454881",
                "kilometers": "64874499.043652623",
                "miles": "40311144.4531192774"
            },
            "orbiting_body": "Earth"
        },
        {
            "close_approach_date": "2014-11-15",
            "close_approach_date_full": "2014-Nov-15 02:07",
            "epoch_date_close_approach": 1416017220000,
            "relative_velocity": {
                "kilometers_per_second": "8.7837909778",
                "kilometers_per_hour": "31621.6475201584",
                "miles_per_hour": "19648.4620382896"
            },
            "miss_distance": {
                "astronomical": "0.0135531527",
                "lunar": "5.2721764003",
                "kilometers": "2027522.775704749",
                "miles": "1259844.2330695762"
            },
            "orbiting_body": "Earth"
        },
        {
            "close_approach_date": "2033-06-27",
            "close_approach_date_full": "2033-Jun-27 01:59",
            "epoch_date_close_approach": 2003450340000,
            "relative_velocity": {
                "kilometers_per_second": "13.1128059672",
                "kilometers_per_hour": "47206.1014817908",
                "miles_per_hour": "29332.0356679494"
            },
            "miss_distance": {
                "astronomical": "0.1776369948",
                "lunar": "69.1007909772",
                "kilometers": "26574116.055281076",
                "miles": "16512390.0270518088"
            },
            "orbiting_body": "Earth"
        }
    ],
    "orbital_data": {
        "orbit_id": "3",
        "orbit_determination_date": "2017-04-06 08:37:19",
        "first_observation_date": "2014-11-20",
        "last_observation_date": "2014-11-23",
        "data_arc_in_days": 3,
        "observations_used": 10,
        "orbit_uncertainty": "8",
        "minimum_orbit_intersection": ".0118176",
        "jupiter_tisserand_invariant": "4.991",
        "epoch_osculation": "2456982.5",
        "eccentricity": ".3145761244234621",
        "semi_major_axis": "1.284121905570718",
        "inclination": "5.300780234559713",
        "ascending_node_longitude": "58.6937371364746",
        "orbital_period": "531.5055560377775",
        "perihelion_distance": ".8801678132290103",
        "perihelion_argument": "294.5831919610492",
        "aphelion_distance": "1.688075997912425",
        "perihelion_time": "2456929.848354312934",
        "mean_anomaly": "35.66207771870693",
        "mean_motion": ".6773212357057892",
        "equinox": "J2000",
        "orbit_class": {
            "orbit_class_type": "APO",
            "orbit_class_description": "Near-Earth asteroid orbits which cross the Earth’s orbit similar to that of 1862 Apollo",
            "orbit_class_range": "a (semi-major axis) > 1.0 AU; q (perihelion) < 1.017 AU"
        }
    },
    "is_sentry_object": false
}